GLOBALSTAR M045 [-]     
1 25676U 99019A   23305.45717166 -.00000067  00000+0  23434-3 0  9996
2 25676  51.9960 197.4660 0001600  86.7507  84.1790 12.27018093120501
GLOBALSTAR M019 [-]     
1 25677U 99019B   23305.34096500 -.00000147  00000+0 -59967-3 0  9997
2 25677  51.9881 286.3917 0000672 174.1358 333.5098 12.13849334113027
GLOBALSTAR M044 [-]     
1 25678U 99019C   23305.39100262 -.00000034  00000+0  69895-3 0  9999
2 25678  51.9947 163.3285 0006253 343.5248 188.1858 11.90226421100613
GLOBALSTAR M042 [-]     
1 25679U 99019D   23305.45434220 -.00000033  00000+0  55889-3 0  9998
2 25679  52.0013 287.0276 0002961 149.3245  27.3144 12.22050005112664
GLOBALSTAR M025 [-]     
1 25770U 99031A   23305.55351995 -.00000087  00000+0 -59406-3 0  9991
2 25770  51.9798  94.4515 0000981 179.3340 256.1415 11.22546798415048
GLOBALSTAR M049 [-]     
1 25771U 99031B   23305.58649616 -.00000035  00000+0  10327-2 0  9995
2 25771  51.9853  99.3063 0003812  99.7028 260.4199 11.12103021 51384
GLOBALSTAR M047 [-]     
1 25772U 99031C   23305.89575939 -.00000063  00000+0  18420-3 0  9990
2 25772  51.9802 152.2597 0015790 328.0620  31.9227 11.31917024 78697
GLOBALSTAR M052 [-]     
1 25773U 99031D   23305.53768603 -.00000042  00000+0  81694-3 0  9994
2 25773  51.9857 216.4406 0001744 287.3776 243.9863 11.15046376412286
